ICEYE-X2                
1 43800U 18099AU  26193.52223882  .00004246  00000+0  21178-3 0  9992
2 43800  97.4353 246.9198 0009485 204.0464 156.0328 15.18022897416664
ICEYE-X4                
1 44390U 19038D   26193.51522391  .00007371  00000+0  25736-3 0  9993
2 44390  97.8752 227.9250 0012591 207.6930 152.3640 15.29843944385671
ICEYE-X7                
1 46496U 20068L   26193.55293711  .00007302  00000+0  23852-3 0  9993
2 46496  97.7500 161.2434 0005769 224.3585 135.7194 15.32061782318676
ICEYE-X6                
1 46497U 20068M   26193.52952514  .00002003  00000+0  14720-3 0  9991
2 46497  98.0984 188.4152 0007462  17.8259 342.3226 15.04657216317044
ICEYE-X21               
1 55049U 23001AS  26175.21618542  .01585954  23968-5  60214-3 0  9995
2 55049  97.3001 262.6152 0012377 285.9702  74.0225 16.24069885194757
ICEYE-X25               
1 56963U 23084AH  26193.49914385  .00033692  00000+0  37710-3 0  9993
2 56963  97.5899 341.5389 0004144 193.4688 166.6460 15.62645983171921
ICEYE-X31               
1 58288U 23174AJ  26193.49982142  .00010968  00000+0  32404-3 0  9997
2 58288  97.3780 269.2453 0002447 193.9510 166.1666 15.35118877148633
ICEYE-X34               
1 58294U 23174AQ  26193.19993447  .00109861  00000+0  88432-3 0  9994
2 58294  97.3864 285.6933 0001643 206.8166 153.3011 15.70592413149663
ICEYE-X35               
1 58302U 23174AY  26193.48798779  .00035036  00000+0  52281-3 0  9992
2 58302  97.3791 278.8012 0008070 116.5972 243.6110 15.54953913149275
ICEYE-X38               
1 59100U 24043C   26193.51402686  .00002285  00000+0  13312-3 0  9990
2 59100  97.8427 337.9650 0002596  28.8592 331.2781 15.13077069115509
ICEYE-X37               
1 59102U 24043E   26193.15969939  .00001442  00000+0  10255-3 0  9998
2 59102  97.8333 330.5592 0013657 285.5814  74.3905 15.06280583128843
ICEYE-X36               
1 59103U 24043F   26193.34816469  .00002260  00000+0  15443-3 0  9992
2 59103  97.8389 331.8740 0005117 225.1451 134.9361 15.07218340128935
ICEYE-X43               
1 60539U 24149BZ  26192.78228862  .00001184  00000+0  10054-3 0  9992
2 60539  97.6813 269.4175 0006754   2.2764 357.8489 14.99780913103803
ICEYE-X39               
1 60546U 24149CG  26193.15971096  .00002531  00000+0  20793-3 0  9994
2 60546  97.6782 269.8455 0007035  55.0251 305.1632 15.00059444103864
ICEYE-X33               
1 60548U 24149CJ  26190.83635085  .00003143  00000+0  25135-3 0  9998
2 60548  97.7345 269.8614 0001952  73.3938 286.7500 15.00937312103605
