{"fetched_at":"2026-07-12T17:32:49.193Z","source":"https://celestrak.org/NORAD/elements/gp.php?NAME=ICEYE&FORMAT=JSON","constellation":"iceye","records":[{"OBJECT_NAME":"ICEYE-X2","OBJECT_ID":"2018-099AU","EPOCH":"2026-07-12T12:32:01.434048","CLASSIFICATION_TYPE":"U","MEAN_MOTION":15.18022897,"ECCENTRICITY":0.0009485,"INCLINATION":97.4353,"RA_OF_ASC_NODE":246.9198,"ARG_OF_PERICENTER":204.0464,"MEAN_ANOMALY":156.0328,"EPHEMERIS_TYPE":0,"NORAD_CAT_ID":43800,"ELEMENT_SET_NO":999,"REV_AT_EPOCH":41666,"BSTAR":0.00021178,"MEAN_MOTION_DOT":0.00004246,"MEAN_MOTION_DDOT":0},{"OBJECT_NAME":"ICEYE-X4","OBJECT_ID":"2019-038D","EPOCH":"2026-07-12T12:21:55.345824","CLASSIFICATION_TYPE":"U","MEAN_MOTION":15.29843944,"ECCENTRICITY":0.0012591,"INCLINATION":97.8752,"RA_OF_ASC_NODE":227.925,"ARG_OF_PERICENTER":207.693,"MEAN_ANOMALY":152.364,"EPHEMERIS_TYPE":0,"NORAD_CAT_ID":44390,"ELEMENT_SET_NO":999,"REV_AT_EPOCH":38567,"BSTAR":0.00025736,"MEAN_MOTION_DOT":0.00007371,"MEAN_MOTION_DDOT":0},{"OBJECT_NAME":"ICEYE-X7","OBJECT_ID":"2020-068L","EPOCH":"2026-07-12T13:16:13.766304","CLASSIFICATION_TYPE":"U","MEAN_MOTION":15.32061782,"ECCENTRICITY":0.0005769,"INCLINATION":97.75,"RA_OF_ASC_NODE":161.2434,"ARG_OF_PERICENTER":224.3585,"MEAN_ANOMALY":135.7194,"EPHEMERIS_TYPE":0,"NORAD_CAT_ID":46496,"ELEMENT_SET_NO":999,"REV_AT_EPOCH":31867,"BSTAR":0.00023852,"MEAN_MOTION_DOT":0.00007302,"MEAN_MOTION_DDOT":0},{"OBJECT_NAME":"ICEYE-X6","OBJECT_ID":"2020-068M","EPOCH":"2026-07-12T12:42:30.972096","CLASSIFICATION_TYPE":"U","MEAN_MOTION":15.04657216,"ECCENTRICITY":0.0007462,"INCLINATION":98.0984,"RA_OF_ASC_NODE":188.4152,"ARG_OF_PERICENTER":17.8259,"MEAN_ANOMALY":342.3226,"EPHEMERIS_TYPE":0,"NORAD_CAT_ID":46497,"ELEMENT_SET_NO":999,"REV_AT_EPOCH":31704,"BSTAR":0.0001472,"MEAN_MOTION_DOT":0.00002003,"MEAN_MOTION_DDOT":0},{"OBJECT_NAME":"ICEYE-X21","OBJECT_ID":"2023-001AS","EPOCH":"2026-06-24T05:11:18.420288","CLASSIFICATION_TYPE":"U","MEAN_MOTION":16.24069885,"ECCENTRICITY":0.00123774,"INCLINATION":97.3001,"RA_OF_ASC_NODE":262.6152,"ARG_OF_PERICENTER":285.9702,"MEAN_ANOMALY":74.0225,"EPHEMERIS_TYPE":0,"NORAD_CAT_ID":55049,"ELEMENT_SET_NO":999,"REV_AT_EPOCH":19475,"BSTAR":0.000602142,"MEAN_MOTION_DOT":0.01585954,"MEAN_MOTION_DDOT":0.000002396838},{"OBJECT_NAME":"ICEYE-X25","OBJECT_ID":"2023-084AH","EPOCH":"2026-07-12T11:58:46.028640","CLASSIFICATION_TYPE":"U","MEAN_MOTION":15.62645983,"ECCENTRICITY":0.0004144,"INCLINATION":97.5899,"RA_OF_ASC_NODE":341.5389,"ARG_OF_PERICENTER":193.4688,"MEAN_ANOMALY":166.646,"EPHEMERIS_TYPE":0,"NORAD_CAT_ID":56963,"ELEMENT_SET_NO":999,"REV_AT_EPOCH":17192,"BSTAR":0.0003771,"MEAN_MOTION_DOT":0.00033692,"MEAN_MOTION_DDOT":0},{"OBJECT_NAME":"ICEYE-X31","OBJECT_ID":"2023-174AJ","EPOCH":"2026-07-12T11:59:44.570688","CLASSIFICATION_TYPE":"U","MEAN_MOTION":15.35118877,"ECCENTRICITY":0.0002447,"INCLINATION":97.378,"RA_OF_ASC_NODE":269.2453,"ARG_OF_PERICENTER":193.951,"MEAN_ANOMALY":166.1666,"EPHEMERIS_TYPE":0,"NORAD_CAT_ID":58288,"ELEMENT_SET_NO":999,"REV_AT_EPOCH":14863,"BSTAR":0.00032404,"MEAN_MOTION_DOT":0.00010968,"MEAN_MOTION_DDOT":0},{"OBJECT_NAME":"ICEYE-X34","OBJECT_ID":"2023-174AQ","EPOCH":"2026-07-12T04:47:54.338208","CLASSIFICATION_TYPE":"U","MEAN_MOTION":15.70592413,"ECCENTRICITY":0.00016432,"INCLINATION":97.3864,"RA_OF_ASC_NODE":285.6933,"ARG_OF_PERICENTER":206.8166,"MEAN_ANOMALY":153.3011,"EPHEMERIS_TYPE":0,"NORAD_CAT_ID":58294,"ELEMENT_SET_NO":999,"REV_AT_EPOCH":14966,"BSTAR":0.00088431752,"MEAN_MOTION_DOT":0.00109861,"MEAN_MOTION_DDOT":0},{"OBJECT_NAME":"ICEYE-X35","OBJECT_ID":"2023-174AY","EPOCH":"2026-07-12T11:42:42.145056","CLASSIFICATION_TYPE":"U","MEAN_MOTION":15.54953913,"ECCENTRICITY":0.000807,"INCLINATION":97.3791,"RA_OF_ASC_NODE":278.8012,"ARG_OF_PERICENTER":116.5972,"MEAN_ANOMALY":243.611,"EPHEMERIS_TYPE":0,"NORAD_CAT_ID":58302,"ELEMENT_SET_NO":999,"REV_AT_EPOCH":14927,"BSTAR":0.00052281,"MEAN_MOTION_DOT":0.00035036,"MEAN_MOTION_DDOT":0},{"OBJECT_NAME":"ICEYE-X38","OBJECT_ID":"2024-043C","EPOCH":"2026-07-12T12:20:11.920704","CLASSIFICATION_TYPE":"U","MEAN_MOTION":15.13077069,"ECCENTRICITY":0.0002596,"INCLINATION":97.8427,"RA_OF_ASC_NODE":337.965,"ARG_OF_PERICENTER":28.8592,"MEAN_ANOMALY":331.2781,"EPHEMERIS_TYPE":0,"NORAD_CAT_ID":59100,"ELEMENT_SET_NO":999,"REV_AT_EPOCH":11550,"BSTAR":0.00013312,"MEAN_MOTION_DOT":0.00002285,"MEAN_MOTION_DDOT":0},{"OBJECT_NAME":"ICEYE-X37","OBJECT_ID":"2024-043E","EPOCH":"2026-07-12T03:49:58.027296","CLASSIFICATION_TYPE":"U","MEAN_MOTION":15.06280583,"ECCENTRICITY":0.00136577,"INCLINATION":97.8333,"RA_OF_ASC_NODE":330.5592,"ARG_OF_PERICENTER":285.5814,"MEAN_ANOMALY":74.3905,"EPHEMERIS_TYPE":0,"NORAD_CAT_ID":59102,"ELEMENT_SET_NO":999,"REV_AT_EPOCH":12884,"BSTAR":0.00010254646,"MEAN_MOTION_DOT":0.00001442,"MEAN_MOTION_DDOT":0},{"OBJECT_NAME":"ICEYE-X36","OBJECT_ID":"2024-043F","EPOCH":"2026-07-12T08:21:21.429216","CLASSIFICATION_TYPE":"U","MEAN_MOTION":15.0721834,"ECCENTRICITY":0.0005117,"INCLINATION":97.8389,"RA_OF_ASC_NODE":331.874,"ARG_OF_PERICENTER":225.1451,"MEAN_ANOMALY":134.9361,"EPHEMERIS_TYPE":0,"NORAD_CAT_ID":59103,"ELEMENT_SET_NO":999,"REV_AT_EPOCH":12893,"BSTAR":0.00015443,"MEAN_MOTION_DOT":0.0000226,"MEAN_MOTION_DDOT":0},{"OBJECT_NAME":"ICEYE-X43","OBJECT_ID":"2024-149BZ","EPOCH":"2026-07-11T18:46:29.736768","CLASSIFICATION_TYPE":"U","MEAN_MOTION":14.99780913,"ECCENTRICITY":0.00067542,"INCLINATION":97.6813,"RA_OF_ASC_NODE":269.4175,"ARG_OF_PERICENTER":2.2764,"MEAN_ANOMALY":357.8489,"EPHEMERIS_TYPE":0,"NORAD_CAT_ID":60539,"ELEMENT_SET_NO":999,"REV_AT_EPOCH":10380,"BSTAR":0.00010053928,"MEAN_MOTION_DOT":0.00001184,"MEAN_MOTION_DDOT":0},{"OBJECT_NAME":"ICEYE-X39","OBJECT_ID":"2024-149CG","EPOCH":"2026-07-12T03:49:59.026944","CLASSIFICATION_TYPE":"U","MEAN_MOTION":15.00059444,"ECCENTRICITY":0.00070359,"INCLINATION":97.6782,"RA_OF_ASC_NODE":269.8455,"ARG_OF_PERICENTER":55.0251,"MEAN_ANOMALY":305.1632,"EPHEMERIS_TYPE":0,"NORAD_CAT_ID":60546,"ELEMENT_SET_NO":999,"REV_AT_EPOCH":10386,"BSTAR":0.00020792867,"MEAN_MOTION_DOT":0.00002531,"MEAN_MOTION_DDOT":0},{"OBJECT_NAME":"ICEYE-X33","OBJECT_ID":"2024-149CJ","EPOCH":"2026-07-09T20:04:20.713440","CLASSIFICATION_TYPE":"U","MEAN_MOTION":15.00937312,"ECCENTRICITY":0.0001952,"INCLINATION":97.7345,"RA_OF_ASC_NODE":269.8614,"ARG_OF_PERICENTER":73.3938,"MEAN_ANOMALY":286.75,"EPHEMERIS_TYPE":0,"NORAD_CAT_ID":60548,"ELEMENT_SET_NO":999,"REV_AT_EPOCH":10360,"BSTAR":0.00025134873,"MEAN_MOTION_DOT":0.00003143,"MEAN_MOTION_DDOT":0}]}
